{
    "links": {
        "self": "http://www.neowsapp.com/rest/v1/neo/3430382?api_key=iIulBulltgU6a56xZRHN4H3l9WmuAYTsLGpBGhQ2"
    },
    "id": "3430382",
    "neo_reference_id": "3430382",
    "name": "(2008 TF9)",
    "designation": "2008 TF9",
    "nasa_jpl_url": "http://ssd.jpl.nasa.gov/sbdb.cgi?sstr=3430382",
    "absolute_magnitude_h": 20.8,
    "estimated_diameter": {
        "kilometers": {
            "estimated_diameter_min": 0.1838886721,
            "estimated_diameter_max": 0.411187571
        },
        "meters": {
            "estimated_diameter_min": 183.8886720703,
            "estimated_diameter_max": 411.1875710413
        },
        "miles": {
            "estimated_diameter_min": 0.1142630881,
            "estimated_diameter_max": 0.2555000322
        },
        "feet": {
            "estimated_diameter_min": 603.309310875,
            "estimated_diameter_max": 1349.040630575
        }
    },
    "is_potentially_hazardous_asteroid": false,
    "close_approach_data": [
        {
            "close_approach_date": "2004-09-16",
            "close_approach_date_full": "2004-Sep-16 18:37",
            "epoch_date_close_approach": 1095359820000,
            "relative_velocity": {
                "kilometers_per_second": "21.3998974903",
                "kilometers_per_hour": "77039.6309651477",
                "miles_per_hour": "47869.4306960941"
            },
            "miss_distance": {
                "astronomical": "0.4712392987",
                "lunar": "183.3120871943",
                "kilometers": "70496395.345813769",
                "miles": "43804428.8295332522"
            },
            "orbiting_body": "Earth"
        },
        {
            "close_approach_date": "2008-09-25",
            "close_approach_date_full": "2008-Sep-25 16:39",
            "epoch_date_close_approach": 1222360740000,
            "relative_velocity": {
                "kilometers_per_second": "23.2619686141",
                "kilometers_per_hour": "83743.087010922",
                "miles_per_hour": "52034.697592981"
            },
            "miss_distance": {
                "astronomical": "0.260325105",
                "lunar": "101.266465845",
                "kilometers": "38944081.21552635",
                "miles": "24198729.95730963"
            },
            "orbiting_body": "Earth"
        }
    ],
    "orbital_data": {
        "orbit_id": "12",
        "orbit_determination_date": "2017-04-06 09:02:39",
        "first_observation_date": "2008-10-08",
        "last_observation_date": "2008-10-27",
        "data_arc_in_days": 19,
        "observations_used": 41,
        "orbit_uncertainty": "7",
        "minimum_orbit_intersection": ".246502",
        "jupiter_tisserand_invariant": "2.931",
        "epoch_osculation": "2459000.5",
        "eccentricity": ".5367736136472626",
        "semi_major_axis": "2.549460786627446",
        "inclination": "41.11566776076852",
        "ascending_node_longitude": "5.873403230752663",
        "orbital_period": "1486.862921958362",
        "perihelion_distance": "1.180977507337439",
        "perihelion_argument": "324.5548776023659",
        "aphelion_distance": "3.917944065917453",
        "perihelion_time": "2459172.689417092317",
        "mean_anomaly": "318.3094115551762",
        "mean_motion": ".242120503970763",
        "equinox": "J2000",
        "orbit_class": {
            "orbit_class_type": "AMO",
            "orbit_class_description": "Near-Earth asteroid orbits similar to that of 1221 Amor",
            "orbit_class_range": "1.017 AU < q (perihelion) < 1.3 AU"
        }
    },
    "is_sentry_object": false
}